[{"OBJECT_NAME":"JY1SAT (JO-97)","OBJECT_ID":"2018-099AX","EPOCH":"2026-03-09T16:28:19.890048","MEAN_MOTION":15.30302629,"ECCENTRICITY":0.00047232,"INCLINATION":97.4249,"RA_OF_ASC_NODE":131.3625,"ARG_OF_PERICENTER":256.6795,"MEAN_ANOMALY":103.3919,"EPHEMERIS_TYPE":0,"CLASSIFICATION_TYPE":"U","NORAD_CAT_ID":43803,"ELEMENT_SET_NO":999,"REV_AT_EPOCH":39839,"BSTAR":0.00060804308,"MEAN_MOTION_DOT":0.00017774,"MEAN_MOTION_DDOT":0},{"OBJECT_NAME":"STARLINK-33825","OBJECT_ID":"2025-071N","EPOCH":"2026-03-09T11:53:26.907648","MEAN_MOTION":15.30183313,"ECCENTRICITY":0.00011517,"INCLINATION":53.158,"RA_OF_ASC_NODE":140.5753,"ARG_OF_PERICENTER":70.5737,"MEAN_ANOMALY":289.5389,"EPHEMERIS_TYPE":0,"CLASSIFICATION_TYPE":"U","NORAD_CAT_ID":63505,"ELEMENT_SET_NO":999,"REV_AT_EPOCH":5274,"BSTAR":0.0009884417,"MEAN_MOTION_DOT":0.00029015,"MEAN_MOTION_DDOT":0}]
