JY1SAT (JO-97)          
1 43803U 18099AX  26068.68634132  .00017774  00000+0  60804-3 0  9996
2 43803  97.4249 131.3625 0004723 256.6795 103.3919 15.30302628398390
STARLINK-33825          
1 63505U 25071N   26068.49545032  .00029015  00000+0  98844-3 0  9990
2 63505  53.1580 140.5753 0001151  70.5737 289.5389 15.30183313 52745
